$$SOE
2459580.500000000, A.D. 2022-Jan-01 00:00:00.0000, 5.979064165590897E+09, 2.822237327396867E+09, -1.816740921822987E+08,
2459587.500000000, A.D. 2022-Jan-08 00:00:00.0000, 5.977874533107583E+09, 2.824653877770636E+09, -1.815558199446435E+08,
2459594.500000000, A.D. 2022-Jan-15 00:00:00.0000, 5.976683815882230E+09, 2.827069968862277E+09, -1.814375156524286E+08,
2459601.500000000, A.D. 2022-Jan-22 00:00:00.0000, 5.975492018006779E+09, 2.829485598758616E+09, -1.813191797009516E+08,
2459608.500000000, A.D. 2022-Jan-29 00:00:00.0000, 5.974299144152375E+09, 2.831900768022912E+09, -1.812008123783834E+08,
2459615.500000000, A.D. 2022-Feb-05 00:00:00.0000, 5.973105197362308E+09, 2.834315479023192E+09, -1.810824137180068E+08,
2459622.500000000, A.D. 2022-Feb-12 00:00:00.0000, 5.971910179018240E+09, 2.836729734192329E+09, -1.809639836354936E+08,
2459629.500000000, A.D. 2022-Feb-19 00:00:00.0000, 5.970714089655005E+09, 2.839143535588892E+09, -1.808455220362332E+08,
2459636.500000000, A.D. 2022-Feb-26 00:00:00.0000, 5.969516929312573E+09, 2.841556885035726E+09, -1.807270288316857E+08,
2459643.500000000, A.D. 2022-Mar-05 00:00:00.0000, 5.968318697584462E+09, 2.843969784219445E+09, -1.806085039300411E+08,
2459650.500000000, A.D. 2022-Mar-12 00:00:00.0000, 5.967119393584421E+09, 2.846382234685154E+09, -1.804899472271799E+08,
2459657.500000000, A.D. 2022-Mar-19 00:00:00.0000, 5.965919015902448E+09, 2.848794237754619E+09, -1.803713586024742E+08,
2459664.500000000, A.D. 2022-Mar-26 00:00:00.0000, 5.964717562572522E+09, 2.851205794362109E+09, -1.802527379222475E+08,
2459671.500000000, A.D. 2022-Apr-02 00:00:00.0000, 5.963515031119887E+09, 2.853616904752315E+09, -1.801340850619495E+08,
2459678.500000000, A.D. 2022-Apr-09 00:00:00.0000, 5.962311418959914E+09, 2.856027568045370E+09, -1.800153999718246E+08,
2459685.500000000, A.D. 2022-Apr-16 00:00:00.0000, 5.961106724505674E+09, 2.858437782323313E+09, -1.798966827655654E+08,
2459692.500000000, A.D. 2022-Apr-23 00:00:00.0000, 5.959900947715384E+09, 2.860847546322409E+09, -1.797779336270915E+08,
2459699.500000000, A.D. 2022-Apr-30 00:00:00.0000, 5.958694088209517E+09, 2.863256860486246E+09, -1.796591525474869E+08,
2459706.500000000, A.D. 2022-May-07 00:00:00.0000, 5.957486144020366E+09, 2.865665725406147E+09, -1.795403393343644E+08,
2459713.500000000, A.D. 2022-May-14 00:00:00.0000, 5.956277112363385E+09, 2.868074140687195E+09, -1.794214937728596E+08,
2459720.500000000, A.D. 2022-May-21 00:00:00.0000, 5.955066990399301E+09, 2.870482104998644E+09, -1.793026156899507E+08,
2459727.500000000, A.D. 2022-May-28 00:00:00.0000, 5.953855775508108E+09, 2.872889616350042E+09, -1.791837049565299E+08,
2459734.500000000, A.D. 2022-Jun-04 00:00:00.0000, 5.952643465352163E+09, 2.875296672280322E+09, -1.790647614781790E+08,
2459741.500000000, A.D. 2022-Jun-11 00:00:00.0000, 5.951430057873013E+09, 2.877703269962205E+09, -1.789457851877009E+08,
2459748.500000000, A.D. 2022-Jun-18 00:00:00.0000, 5.950215551260715E+09, 2.880109406235385E+09, -1.788267760418087E+08,
2459755.500000000, A.D. 2022-Jun-25 00:00:00.0000, 5.948999943925116E+09, 2.882515077535568E+09, -1.787077340273091E+08,
2459762.500000000, A.D. 2022-Jul-02 00:00:00.0000, 5.947783234603177E+09, 2.884920279653869E+09, -1.785886591943357E+08,
2459769.500000000, A.D. 2022-Jul-09 00:00:00.0000, 5.946565422992647E+09, 2.887325007503775E+09, -1.784695517378471E+08,
2459776.500000000, A.D. 2022-Jul-16 00:00:00.0000, 5.945346510856909E+09, 2.889729255978628E+09, -1.783504120336857E+08,
2459783.500000000, A.D. 2022-Jul-23 00:00:00.0000, 5.944126501402673E+09, 2.892133021977473E+09, -1.782312404210119E+08,
2459790.500000000, A.D. 2022-Jul-30 00:00:00.0000, 5.942905397014540E+09, 2.894536304245351E+09, -1.781120370126981E+08,
2459797.500000000, A.D. 2022-Aug-06 00:00:00.0000, 5.941683198945246E+09, 2.896939101676213E+09, -1.779928018105896E+08,
2459804.500000000, A.D. 2022-Aug-13 00:00:00.0000, 5.940459908138379E+09, 2.899341412832892E+09, -1.778735348247789E+08,
2459811.500000000, A.D. 2022-Aug-20 00:00:00.0000, 5.939235525614226E+09, 2.901743236180738E+09, -1.777542360938478E+08,
2459818.500000000, A.D. 2022-Aug-27 00:00:00.0000, 5.938010052486883E+09, 2.904144570308357E+09, -1.776349056714604E+08,
2459825.500000000, A.D. 2022-Sep-03 00:00:00.0000, 5.936783489860569E+09, 2.906545414024897E+09, -1.775155436109102E+08,
2459832.500000000, A.D. 2022-Sep-10 00:00:00.0000, 5.935555838695223E+09, 2.908945766357812E+09, -1.773961499537975E+08,
2459839.500000000, A.D. 2022-Sep-17 00:00:00.0000, 5.934327099670816E+09, 2.911345626449351E+09, -1.772767247256242E+08,
2459846.500000000, A.D. 2022-Sep-24 00:00:00.0000, 5.933097273110798E+09, 2.913744993300918E+09, -1.771572679480424E+08,
2459853.500000000, A.D. 2022-Oct-01 00:00:00.0000, 5.931866359204669E+09, 2.916143865342964E+09, -1.770377796916890E+08,
2459860.500000000, A.D. 2022-Oct-08 00:00:00.0000, 5.930634358936975E+09, 2.918542240352546E+09, -1.769182601645007E+08,
2459867.500000000, A.D. 2022-Oct-15 00:00:00.0000, 5.929401274790883E+09, 2.920940116917673E+09, -1.767987096522597E+08,
2459874.500000000, A.D. 2022-Oct-22 00:00:00.0000, 5.928167109044774E+09, 2.923337495764598E+09, -1.766791282491541E+08,
2459881.500000000, A.D. 2022-Oct-29 00:00:00.0000, 5.926931862159628E+09, 2.925734378354544E+09, -1.765595158196824E+08,
2459888.500000000, A.D. 2022-Nov-05 00:00:00.0000, 5.925695533356562E+09, 2.928130765491004E+09, -1.764398721607281E+08,
2459895.500000000, A.D. 2022-Nov-12 00:00:00.0000, 5.924458121419668E+09, 2.930526657204863E+09, -1.763201970802698E+08,
2459902.500000000, A.D. 2022-Nov-19 00:00:00.0000, 5.923219625004771E+09, 2.932922052963214E+09, -1.762004904048977E+08,
2459909.500000000, A.D. 2022-Nov-26 00:00:00.0000, 5.921980042716358E+09, 2.935316951804529E+09, -1.760807519728154E+08,
2459916.500000000, A.D. 2022-Dec-03 00:00:00.0000, 5.920739373118665E+09, 2.937711352388678E+09, -1.759609816285919E+08,
2459923.500000000, A.D. 2022-Dec-10 00:00:00.0000, 5.919497614726496E+09, 2.940105252980468E+09, -1.758411792223620E+08,
2459930.500000000, A.D. 2022-Dec-17 00:00:00.0000, 5.918254766000444E+09, 2.942498651341724E+09, -1.757213446177995E+08,
2459937.500000000, A.D. 2022-Dec-24 00:00:00.0000, 5.917010825455949E+09, 2.944891544466065E+09, -1.756014777242520E+08,
2459944.500000000, A.D. 2022-Dec-31 00:00:00.0000, 5.915765792243787E+09, 2.947283928263892E+09, -1.754815785770199E+08,
2459951.500000000, A.D. 2023-Jan-07 00:00:00.0000, 5.914519667324741E+09, 2.949675798159986E+09, -1.753616473983250E+08,
2459958.500000000, A.D. 2023-Jan-14 00:00:00.0000, 5.913272453271407E+09, 2.952067151100520E+09, -1.752416844178863E+08,
2459965.500000000, A.D. 2023-Jan-21 00:00:00.0000, 5.912024152052400E+09, 2.954457985796839E+09, -1.751216896531577E+08,
2459972.500000000, A.D. 2023-Jan-28 00:00:00.0000, 5.910774764466964E+09, 2.956848301010530E+09, -1.750016630015725E+08,
2459979.500000000, A.D. 2023-Feb-04 00:00:00.0000, 5.909524291021424E+09, 2.959238094907523E+09, -1.748816043781583E+08,
2459986.500000000, A.D. 2023-Feb-11 00:00:00.0000, 5.908272732452294E+09, 2.961627365287688E+09, -1.747615137495784E+08,
2459993.500000000, A.D. 2023-Feb-18 00:00:00.0000, 5.907020089832814E+09, 2.964016109866882E+09, -1.746413911259490E+08,
2460000.500000000, A.D. 2023-Feb-25 00:00:00.0000, 5.905766364525862E+09, 2.966404326449840E+09, -1.745212365476240E+08,
2460007.500000000, A.D. 2023-Mar-04 00:00:00.0000, 5.904511558085564E+09, 2.968792013012936E+09, -1.744010500746233E+08,
2460014.500000000, A.D. 2023-Mar-11 00:00:00.0000, 5.903255672136448E+09, 2.971179167697568E+09, -1.742808317811047E+08,
2460021.500000000, A.D. 2023-Mar-18 00:00:00.0000, 5.901998708277344E+09, 2.973565788664921E+09, -1.741605817630315E+08,
2460028.500000000, A.D. 2023-Mar-25 00:00:00.0000, 5.900740668213614E+09, 2.975951873765155E+09, -1.740403001813236E+08,
2460035.500000000, A.D. 2023-Apr-01 00:00:00.0000, 5.899481554542347E+09, 2.978337420414639E+09, -1.739199873470645E+08,
2460042.500000000, A.D. 2023-Apr-08 00:00:00.0000, 5.898221371575329E+09, 2.980722426906413E+09, -1.737996436920019E+08,
2460049.500000000, A.D. 2023-Apr-15 00:00:00.0000, 5.896960123862885E+09, 2.983106894047870E+09, -1.736792695002177E+08,
2460056.500000000, A.D. 2023-Apr-22 00:00:00.0000, 5.895697814227867E+09, 2.985490824073829E+09, -1.735588648161912E+08,
2460063.500000000, A.D. 2023-Apr-29 00:00:00.0000, 5.894434444044898E+09, 2.987874219087953E+09, -1.734384295959913E+08,
2460070.500000000, A.D. 2023-May-06 00:00:00.0000, 5.893170014004692E+09, 2.990257080813743E+09, -1.733179637946042E+08,
2460077.500000000, A.D. 2023-May-13 00:00:00.0000, 5.891904524386706E+09, 2.992639410761704E+09, -1.731974673729335E+08,
2460084.500000000, A.D. 2023-May-20 00:00:00.0000, 5.890637975074301E+09, 2.995021210321632E+09, -1.730769402862498E+08,
2460091.500000000, A.D. 2023-May-27 00:00:00.0000, 5.889370365505906E+09, 2.997402480750705E+09, -1.729563824744866E+08,
2460098.500000000, A.D. 2023-Jun-03 00:00:00.0000, 5.888101694619799E+09, 2.999783223083438E+09, -1.728357938577985E+08,
2460105.500000000, A.D. 2023-Jun-10 00:00:00.0000, 5.886831960816280E+09, 3.002163437949782E+09, -1.727151743409773E+08,
2460112.500000000, A.D. 2023-Jun-17 00:00:00.0000, 5.885561162026282E+09, 3.004543125241331E+09, -1.725945238400770E+08,
2460119.500000000, A.D. 2023-Jun-24 00:00:00.0000, 5.884289296206407E+09, 3.006922283681315E+09, -1.724738423563092E+08,
2460126.500000000, A.D. 2023-Jul-01 00:00:00.0000, 5.883016362513520E+09, 3.009300911126526E+09, -1.723531300529661E+08,
2460133.500000000, A.D. 2023-Jul-08 00:00:00.0000, 5.881742361484938E+09, 3.011679006423290E+09, -1.722323871148224E+08,
2460140.500000000, A.D. 2023-Jul-15 00:00:00.0000, 5.880467292947431E+09, 3.014056569987752E+09, -1.721116135042827E+08,
2460147.500000000, A.D. 2023-Jul-22 00:00:00.0000, 5.879191155176448E+09, 3.016433602076097E+09, -1.719908090218949E+08,
$$EOE